STARLINK-2142           
1 47732U 21017L   24254.46793066  .00016976  00000+0  11553-2 0  9997
2 47732  53.0555  54.4550 0001629  97.8854 262.2320 15.06416952196103
STARLINK-2143           
1 47733U 21017M   24254.15139646  .00045534  00000+0  30568-2 0  9991
2 47733  53.0523 150.6357 0001349  81.6515 278.4627 15.06391393194734
STARLINK-2144           
1 47734U 21017N   24253.90536328  .00029202  00000+0  19719-2 0  9991
2 47734  53.0542 141.7350 0001291 104.7388 255.3744 15.06387446195482
STARLINK-2146           
1 47735U 21017P   24253.78879370  .00001833  00000+0  14196-3 0  9990
2 47735  53.0541  67.4220 0001352  87.9441 272.1703 15.06391802196497
STARLINK-2147           
1 47736U 21017Q   24254.07214702  .00001979  00000+0  15180-3 0  9991
2 47736  53.0542 130.9880 0001744 100.6962 259.4224 15.06373677195005
STARLINK-2150           
1 47739U 21017T   24254.46608976  .00039506  00000+0  26554-2 0  9990
2 47739  53.0530 154.2202 0001628  81.3603 278.7571 15.06412218194711
STARLINK-2152           
1 47740U 21017U   24253.98276538  .00019833  00000+0  13464-2 0  9990
2 47740  53.0530 141.3911 0001355  99.0251 261.0891 15.06405809194841
STARLINK-2156           
1 47742U 21017W   24254.07584008  .00012372  00000+0  84836-3 0  9990
2 47742  53.0521 130.9721 0001185  71.7668 288.3450 15.06384268195003
STARLINK-2157           
1 47743U 21017X   24253.96894457  .00010775  00000+0  74145-3 0  9997
2 47743  53.0539 131.4541 0001545  91.6090 268.5075 15.06383834194986
STARLINK-2159           
1 47745U 21017Z   24253.97539742  .00027288  00000+0  18443-2 0  9998
2 47745  53.0529 141.4231 0001280  82.9091 277.2043 15.06389232194849
STARLINK-2160           
1 47746U 21017AA  24253.96802700  .00056473  00000+0  37814-2 0  9996
2 47746  53.0551 141.4563 0001034  94.8758 265.2349 15.06385479195466
STARLINK-2161           
1 47747U 21017AB  24254.03160635  .00029232  00000+0  19739-2 0  9999
2 47747  53.0527 131.1724 0001338  86.3307 273.7835 15.06387884194991
STARLINK-2162           
1 47748U 21017AC  24254.09058336  .00036278  00000+0  24424-2 0  9995
2 47748  53.0533 130.9082 0001335  87.3461 272.7681 15.06392144195008
STARLINK-2163           
1 47749U 21017AD  24253.90628781  .00019701  00000+0  13382-2 0  9995
2 47749  53.0529 131.7351 0001255  92.3017 267.8115 15.06389172195606
STARLINK-2164           
1 47750U 21017AE  24254.08320933  .00036761  00000+0  24746-2 0  9996
2 47750  53.0531 130.9396 0001308  88.2822 271.8317 15.06390853195009
STARLINK-2169           
1 47752U 21017AG  24253.94821214  .00023166  00000+0  15697-2 0  9990
2 47752  53.0526 136.5452 0001155  84.4626 275.6495 15.06383368194911
STARLINK-2170           
1 47753U 21017AH  24254.05648738  .00032620  00000+0  21996-2 0  9996
2 47753  53.0523 141.0621 0001558  81.9301 278.1864 15.06384915194857
STARLINK-2171           
1 47754U 21017AJ  24254.42508042  .00004184  00000+0  29956-3 0  9990
2 47754  53.0533 139.4039 0001443  92.9730 267.1424 15.06406654194916
STARLINK-2174           
1 47756U 21017AL  24254.42139322  .00003064  00000+0  22451-3 0  9992
2 47756  53.0549 139.4229 0001380 107.0448 253.0692 15.06402090194911
STARLINK-2175           
1 47757U 21017AM  24254.07436712  .00042293  00000+0  28137-2 0  9990
2 47757  53.0520 140.9762 0001427 130.6837 229.4276 15.06760794194863
STARLINK-2178           
1 47760U 21017AQ  24254.04082686  .00041767  00000+0  28078-2 0  9997
2 47760  53.0518 151.1327 0001256  78.1430 281.9700 15.06380816194712
STARLINK-2179           
1 47761U 21017AR  24254.07123183  .00033589  00000+0  22641-2 0  9992
2 47761  53.0525 140.9946 0001494  79.9971 280.1187 15.06384394194868
STARLINK-2180           
1 47762U 21017AS  24254.09749299  .00037558  00000+0  25277-2 0  9995
2 47762  53.0526 155.8885 0001381 113.7175 246.3959 15.06388186194656
STARLINK-2181           
1 47763U 21017AT  24254.11316169  .00036460  00000+0  24547-2 0  9995
2 47763  53.0533 145.8036 0001316 105.7177 254.3957 15.06388659194790
STARLINK-2182           
1 47764U 21017AU  24254.21543999  .00031520  00000+0  21258-2 0  9998
2 47764  53.0527 155.3474 0001479  70.6152 289.4997 15.06395016194674
STARLINK-2184           
1 47766U 21017AW  24254.03388414  .00038331  00000+0  25803-2 0  9996
2 47766  53.0530 156.1535 0001409  83.4008 276.7141 15.06370804194647
STARLINK-2185           
1 47767U 21017AX  24254.39190405  .00017225  00000+0  11723-2 0  9992
2 47767  53.0523 139.5554 0002137  97.8608 262.2623 15.06404087194916
STARLINK-2189           
1 47768U 21017AY  24254.10122598  .00040139  00000+0  26995-2 0  9997
2 47768  53.0525 156.2577 0001397  82.0135 278.1013 15.06383439194655
STARLINK-2192           
1 47769U 21017AZ  24254.04358528  .00031832  00000+0  21466-2 0  9993
2 47769  53.0528 121.1176 0001430  85.4577 274.6575 15.06393798195137
STARLINK-2193           
1 47770U 21017BA  24254.11776617  .00036424  00000+0  24519-2 0  9990
2 47770  53.0521 135.7851 0001020  88.5558 271.5547 15.06395360194930
STARLINK-2194           
1 47771U 21017BB  24254.19517054  .00039040  00000+0  26259-2 0  9997
2 47771  53.0512 135.4391 0001519  71.7226 288.3928 15.06392263194956
STARLINK-2195           
1 47772U 21017BC  24254.44994677  .00024694  00000+0  16706-2 0  9991
2 47772  53.0524 149.2923 0001274  86.1228 273.9907 15.06406559194775
STARLINK-2196           
1 47773U 21017BD  24254.44627503  .00045730  00000+0  30671-2 0  9994
2 47773  53.0522 149.3123 0001417  83.6936 276.4215 15.06424377194772
STARLINK-2197           
1 47774U 21017BE  24254.11085749  .00048722  00000+0  32682-2 0  9997
2 47774  53.0518 150.8192 0001345  88.9972 271.1171 15.06389454194723
STARLINK-2198           
1 47775U 21017BF  24253.98921588  .00026889  00000+0  18165-2 0  9992
2 47775  53.0528 151.3611 0001417 102.4914 257.6234 15.06413153194717
STARLINK-2209           
1 47776U 21017BG  24254.01594212  .00035175  00000+0  23690-2 0  9995
2 47776  53.0522 141.2445 0001219 100.2393 259.8733 15.06393593194850
STARLINK-2210           
1 47777U 21017BH  24253.95328491  .00030540  00000+0  20603-2 0  9994
2 47777  53.0528 141.5214 0001084  96.3252 263.7860 15.06400528194844
STARLINK-2211           
1 47778U 21017BJ  24253.92010593  .00025451  00000+0  17224-2 0  9993
2 47778  53.0531 141.6752 0001372  73.4046 286.7093 15.06377419194849
STARLINK-2213           
1 47780U 21017BL  24254.41033261 -.00001866  00000+0 -10644-3 0  9994
2 47780  53.0539 139.4630 0001239 120.4897 239.6214 15.06397941194922
STARLINK-2223           
1 47781U 21017BM  24253.91274077  .00022735  00000+0  15418-2 0  9990
2 47781  53.0531 141.7040 0001508  80.0135 280.1024 15.06362385195476
STARLINK-2257           
1 47787U 21018A   24254.19654136  .00043661  00000+0  29331-2 0  9996
2 47787  53.0522 180.4307 0001339  91.5191 268.5951 15.06385122194033
STARLINK-2314           
1 47788U 21018B   24254.14172718  .00034295  00000+0  23108-2 0  9992
2 47788  53.0526 155.6784 0001340  90.0015 270.1127 15.06388142194389
STARLINK-2315           
1 47789U 21018C   24254.19101852  .00050276  00000+0  33720-2 0  9997
2 47789  53.0516 160.4589 0001532  78.8752 281.2409 15.06379675194311
STARLINK-2319           
1 47790U 21018D   24254.09977903 -.00004294  00000+0 -26948-3 0  9992
2 47790  53.0520 150.8686 0001166 111.9106 248.2007 15.06411235194444
STARLINK-2322           
1 47791U 21018E   24254.18547732  .00039057  00000+0  26281-2 0  9998
2 47791  53.0521 180.4813 0001322  82.2901 277.8238 15.06376409194036
STARLINK-2334           
1 47792U 21018F   24254.13204605  .00047738  00000+0  32028-2 0  9994
2 47792  53.0526 160.7234 0001633  81.1822 278.9352 15.06391816194303
STARLINK-2338           
1 47793U 21018G   24254.01408530  .00032679  00000+0  22035-2 0  9990
2 47793  53.0522 161.2477 0001778  91.5069 268.6124 15.06384461194281
STARLINK-2347           
1 47795U 21018J   24254.47116089  .00039155  00000+0  26321-2 0  9995
2 47795  53.0512 159.1997 0001498  91.9261 268.1900 15.06412046194358
STARLINK-2373           
1 47796U 21018K   24254.02146624  .00036309  00000+0  24459-2 0  9993
2 47796  53.0538 161.2193 0001525  87.6464 272.4699 15.06370415194285
STARLINK-2377           
1 47797U 21018L   24254.19054888  .00032926  00000+0  22201-2 0  9996
2 47797  53.0530 185.4590 0001284  96.8523 263.2612 15.06381906193961
STARLINK-2379           
1 47798U 21018M   24254.43060571  .00055171  00000+0  36896-2 0  9992
2 47798  53.0528 159.3837 0001415  92.5075 267.6076 15.06443089194340
STARLINK-2380           
1 47799U 21018N   24254.16153220  .00047124  00000+0  31624-2 0  9990
2 47799  53.0533 160.5902 0001620  82.9749 277.1424 15.06388712194303
STARLINK-2381           
1 47800U 21018P   24254.11730269  .00039684  00000+0  26693-2 0  9994
2 47800  53.0528 160.7896 0001410  80.7872 279.3276 15.06383166194312
STARLINK-2383           
1 47802U 21018R   24254.19793013  .00036960  00000+0  24878-2 0  9997
2 47802  53.0519 185.4260 0001510  79.2547 280.8612 15.06390844193968
STARLINK-2384           
1 47803U 21018S   24254.12836309  .00040280  00000+0  27088-2 0  9993
2 47803  53.0520 160.7381 0001463  81.0239 279.0916 15.06384172194300
STARLINK-2385           
1 47804U 21018T   24254.01040049  .00020400  00000+0  13855-2 0  9999
2 47804  53.0525 161.2676 0001909 111.1432 248.9761 15.06372013194285
STARLINK-2386           
1 47805U 21018U   24254.04360588  .00026416  00000+0  17869-2 0  9998
2 47805  53.0530 161.3610 0001414  82.4088 277.7062 15.06374739194280
STARLINK-2387           
1 47806U 21018V   24254.18042133  .00044289  00000+0  29748-2 0  9994
2 47806  53.0525 175.5114 0001313  85.5469 274.5670 15.06384977194102
STARLINK-2388           
1 47807U 21018W   24254.10348732  .00047415  00000+0  31821-2 0  9990
2 47807  53.0522 150.8486 0001505  81.0281 279.0878 15.06383701194434
